{"type": "FeatureCollection", "name": "pontos_criticos_rpa6", "features": [{"type": "Feature", "properties": {"ponto_id": 5, "bairro": "Boa Viagem", "trecho": "Avenida Conselheiro Aguiar (Interseção com a Rua Tenente João Cícero)", "tipo": "Ponto", "precisao": "Interseção", "verificada": "não", "prior_emlurb": "Não", "grupo": "G1", "lat": -8.113732, "lon": -34.893163}, "geometry": {"type": "Point", "coordinates": [-34.893163, -8.113732]}}, {"type": "Feature", "properties": {"ponto_id": 6, "bairro": "Boa Viagem", "trecho": "Avenida Conselheiro Aguiar (Interseção com a Rua Dona Benvinda)", "tipo": "Ponto", "precisao": "Interseção", "verificada": "não", "prior_emlurb": "Não", "grupo": "G1", "lat": -8.111009, "lon": -34.891491}, "geometry": {"type": "Point", "coordinates": [-34.891491, -8.111009]}}, {"type": "Feature", "properties": {"ponto_id": 7, "bairro": "Boa Viagem", "trecho": "Avenida Conselheiro Aguiar (Interseção com a Rua Maria Carolina)", "tipo": "Ponto", "precisao": "Interseção", "verificada": "não", "prior_emlurb": "Não", "grupo": "G1", "lat": -8.11538, "lon": -34.894176}, "geometry": {"type": "Point", "coordinates": [-34.894176, -8.11538]}}, {"type": "Feature", "properties": {"ponto_id": 8, "bairro": "Boa Viagem", "trecho": "Avenida Conselheiro Aguiar (Do nº 1501 até a Rua Baltazar Pereira)", "tipo": "Linha", "precisao": "Interseção", "verificada": "não", "prior_emlurb": "Não", "grupo": "G2", "lat": -8.101066, "lon": -34.886765}, "geometry": {"type": "Point", "coordinates": [-34.886765, -8.101066]}}, {"type": "Feature", "properties": {"ponto_id": 9, "bairro": "Imbiribeira", "trecho": "Avenida Mascarenhas de Moraes (Da Rua General Mac Arthur até a Universo)", "tipo": "Linha", "precisao": "Interseção", "verificada": "não", "prior_emlurb": "Não", "grupo": "G3", "lat": -8.108934, "lon": -34.911777}, "geometry": {"type": "Point", "coordinates": [-34.911777, -8.108934]}}, {"type": "Feature", "properties": {"ponto_id": 11, "bairro": "Boa Viagem", "trecho": "Rua Professor José Brandão (Toda a extensão)", "tipo": "Linha", "precisao": "Aproximado", "verificada": "não", "prior_emlurb": "Não", "grupo": "G1", "lat": -8.111816, "lon": -34.894789}, "geometry": {"type": "Point", "coordinates": [-34.894789, -8.111816]}}, {"type": "Feature", "properties": {"ponto_id": 12, "bairro": "Boa Viagem", "trecho": "Rua Padre Bernardino Pessoa (Da Avenida Conselheiro Aguiar até a Via Mangue)", "tipo": "Linha", "precisao": "Aproximado", "verificada": "não", "prior_emlurb": "Não", "grupo": "G1", "lat": -8.112935, "lon": -34.896796}, "geometry": {"type": "Point", "coordinates": [-34.896796, -8.112935]}}, {"type": "Feature", "properties": {"ponto_id": 18, "bairro": "Boa Viagem", "trecho": "Rua Jornalista Alfredo Porto Silveira (Toda a extensão)", "tipo": "Linha", "precisao": "Aproximado", "verificada": "não", "prior_emlurb": "Não", "grupo": "isolado", "lat": -8.138796, "lon": -34.913979}, "geometry": {"type": "Point", "coordinates": [-34.913979, -8.138796]}}, {"type": "Feature", "properties": {"ponto_id": 19, "bairro": "Pina", "trecho": "Rua São Luiz (Final da rua)", "tipo": "Ponto", "precisao": "Aproximado", "verificada": "não", "prior_emlurb": "Não", "grupo": "isolado", "lat": -8.089716, "lon": -34.888275}, "geometry": {"type": "Point", "coordinates": [-34.888275, -8.089716]}}, {"type": "Feature", "properties": {"ponto_id": 22, "bairro": "Jordão", "trecho": "Avenida Maria Irene (Vários trechos)", "tipo": "Vários", "precisao": "Aproximado", "verificada": "não", "prior_emlurb": "Não", "grupo": "isolado", "lat": -8.140505, "lon": -34.927358}, "geometry": {"type": "Point", "coordinates": [-34.927358, -8.140505]}}, {"type": "Feature", "properties": {"ponto_id": 24, "bairro": "Ipsep", "trecho": "Rua Blumenau (Até a maré)", "tipo": "Linha", "precisao": "Aproximado", "verificada": "não", "prior_emlurb": "Sim", "grupo": "isolado", "lat": -8.107611, "lon": -34.920256}, "geometry": {"type": "Point", "coordinates": [-34.920256, -8.107611]}}, {"type": "Feature", "properties": {"ponto_id": 25, "bairro": "Ipsep", "trecho": "Rua Raimundo Diniz (Vários trechos)", "tipo": "Vários", "precisao": "Aproximado", "verificada": "não", "prior_emlurb": "Não", "grupo": "isolado", "lat": -8.114288, "lon": -34.921465}, "geometry": {"type": "Point", "coordinates": [-34.921465, -8.114288]}}, {"type": "Feature", "properties": {"ponto_id": 26, "bairro": "Boa Viagem", "trecho": "Avenida Boa Viagem (Antes da Rua Baltazar Passos)", "tipo": "Ponto", "precisao": "Interseção", "verificada": "não", "prior_emlurb": "Não", "grupo": "isolado", "lat": -8.145055, "lon": -34.905114}, "geometry": {"type": "Point", "coordinates": [-34.905114, -8.145055]}}, {"type": "Feature", "properties": {"ponto_id": 33, "bairro": "Ibura", "trecho": "Avenida Dois Rios (Interseção da Avenida Dois Rios com a Rua Rio Pajeú até a Rua Ecoporanga / interseção da Avenida Dois Rios com a Rua Rio Prado)", "tipo": "Linha", "precisao": "Interseção", "verificada": "não", "prior_emlurb": "Sim", "grupo": "G4", "lat": -8.113526, "lon": -34.939007}, "geometry": {"type": "Point", "coordinates": [-34.939007, -8.113526]}}, {"type": "Feature", "properties": {"ponto_id": 34, "bairro": "Ibura", "trecho": "Avenida Dom Helder Câmara (Interseção da Avenida Dom Helder Câmara com a Rua Achiles Amorim)", "tipo": "Ponto", "precisao": "Interseção", "verificada": "não", "prior_emlurb": "Sim", "grupo": "G5", "lat": -8.107493, "lon": -34.929853}, "geometry": {"type": "Point", "coordinates": [-34.929853, -8.107493]}}, {"type": "Feature", "properties": {"ponto_id": 35, "bairro": "Ibura", "trecho": "Avenida Dois Rios (Próximo ao SESI)", "tipo": "Ponto", "precisao": "Aproximado", "verificada": "não", "prior_emlurb": "Sim", "grupo": "G4", "lat": -8.110391, "lon": -34.93687}, "geometry": {"type": "Point", "coordinates": [-34.93687, -8.110391]}}, {"type": "Feature", "properties": {"ponto_id": 36, "bairro": "Imbiribeira", "trecho": "Avenida Mascarenhas de Moraes (Trecho da Ferreira Costa)", "tipo": "Ponto", "precisao": "Aproximado", "verificada": "não", "prior_emlurb": "Sim", "grupo": "G3", "lat": -8.111915, "lon": -34.912386}, "geometry": {"type": "Point", "coordinates": [-34.912386, -8.111915]}}, {"type": "Feature", "properties": {"ponto_id": 37, "bairro": "Ipsep", "trecho": "Avenida Recife (Da Avenida Dom Helder Câmara até o Rio Tejipió)", "tipo": "Linha", "precisao": "Aproximado", "verificada": "não", "prior_emlurb": "Sim", "grupo": "G5", "lat": -8.105179, "lon": -34.927549}, "geometry": {"type": "Point", "coordinates": [-34.927549, -8.105179]}}, {"type": "Feature", "properties": {"ponto_id": 41, "bairro": "Boa Viagem", "trecho": "Rua Thomé Gibson (Da Avenida Encanta Moça até a Via Mangue)", "tipo": "Linha", "precisao": "Aproximado", "verificada": "não", "prior_emlurb": "Não", "grupo": "G2", "lat": -8.098066, "lon": -34.888129}, "geometry": {"type": "Point", "coordinates": [-34.888129, -8.098066]}}, {"type": "Feature", "properties": {"ponto_id": 51, "bairro": "Pina", "trecho": "Avenida Antônio de Góes (Da saída da Via Mangue até a Bacia do Pina (Rio Capibaribe) e cruzamento com a Avenida Conselheiro Aguiar)", "tipo": "Linha", "precisao": "Interseção", "verificada": "não", "prior_emlurb": "Não", "grupo": "isolado", "lat": -8.089423, "lon": -34.882717}, "geometry": {"type": "Point", "coordinates": [-34.882717, -8.089423]}}, {"type": "Feature", "properties": {"ponto_id": 54, "bairro": "Ibura", "trecho": "Rua Rio Prado (Interseção da Rua Rio Prado com a Rua Rio Brígida)", "tipo": "Ponto", "precisao": "Interseção", "verificada": "não", "prior_emlurb": "Não", "grupo": "G4", "lat": -8.113869, "lon": -34.940702}, "geometry": {"type": "Point", "coordinates": [-34.940702, -8.113869]}}]}